ISS (ZARYA)             
1 25544U 98067A   26206.50000000  .00016717  00000-0  30000-3 0  9993
2 25544  51.6400 208.1000 0004000 120.0000 240.0000 15.49810000500008
STARLINK-3011           
1 48859U 21060A   26206.50000000  .00001000  00000-0  10000-3 0  9991
2 48859  53.0500 150.2000 0001500  90.0000 270.0000 15.06000000200005
NOAA 19                 
1 33591U 09005A   26206.50000000  .00000100  00000-0  50000-4 0  9998
2 33591  98.7000  45.1000 0014000  60.0000 300.0000 14.12000000800002
HST                     
1 20580U 90037B   26206.50000000  .00001200  00000-0  80000-4 0  9994
2 20580  28.4700 310.5000 0002800 200.0000 160.0000 15.09000000900006
